*******************************************************************************
 Revised: Sep 29, 2017              Jupiter                                 599
 
 PHYSICAL DATA (updated 2009-Jan-28):
  Mass (10^24 kg)       =  1898.13+-.19   Density (g/cm^3)       =  1.326
  Equat. radius (1 bar) = 71492+-4 km     Polar radius (km)      = 66854+-10
  Volumetric mean radius= 69911+-6 km     Flattening             =  0.06487

  Rotation period       = 9h 55m 29.685s  Rot. rate(10^-4 rad/s) =  1.75865
  m = w^2a^3/GM         =  0.089195       Hydrostatic flat., fh  =  0.06509
  Inferred rot. period  =  9.894+-0.02 hr ks = 3*J2/m            =  0.494
  Mom. of inert. I/MRo^2=  0.254          I/MRo^2 (upper bound)  =  0.267 
  Rocky core mass (Mc/M)=  0.0261         Y factor (He/H ratio)  =  0.18+-0.04

  GM (km^3/s^2)         = 126,686,511     GM 1-sigma (km^3/s^2)  = +-100
  Equ. grav, ge (m/s^2) = 24.79           Pol. grav, gp (m/s^2)  = 28.34

  Geometric albedo      =  0.52           Visual magnitude V(1,0)= -9.40
  Vis. mag. (opposition)= -2.70           Obliquity to orbit     =  3.12 deg
  Sidereal orbit period = 11.862615 yr    Sidereal orbit period  = 4332.820 d
  Mean daily motion     = 0.0831294 deg/d Mean orbit velocity    = 13.0697 km/s

  Atmos. temp. (1 bar)  = 165+-5 K        Heat flow/mass (x10^7) = 15 erg/gm*s
  Planetary Solar Const =  50.5 W/m^2     Dipole tilt/offset     = 9.6deg/0.1Rp 
  Escape velocity (km/s)=  59.5           Mag.dip.mom(gauss-Rp^3)= 4.2 
  A_roche(ice)/Rp       =  2.76           Hill's sphere rad. Rp  = 740
*******************************************************************************
 
 
*******************************************************************************
Ephemeris / WWW_USER Tue Oct 17 07:05:00 2017 Pasadena, USA      / Horizons    
*******************************************************************************
Target body name: Jupiter (599)                   {source: jup341}
Center body name: Solar System Barycenter (0)     {source: DE431mx}
Center-site name: BODY CENTER
*******************************************************************************
Start time      : A.D. 2017-Oct-17 00:00:00.0000 TDB
Stop  time      : A.D. 2017-Nov-16 00:00:00.0000 TDB
Step-size       : 1440 minutes
*******************************************************************************
Center geodetic : 0.00000000,0.00000000,0.0000000 {E-lon(deg),Lat(deg),Alt(km)}
Center cylindric: 0.00000000,0.00000000,0.0000000 {E-lon(deg),Dxy(km),Dz(km)}
Center radii    : (undefined)                                                  
Output units    : AU-D                                                         
Output type     : GEOMETRIC cartesian states
Output format   : 3 (position, velocity, LT, range, range-rate)
Reference frame : ICRF/J2000.0                                                 
Coordinate systm: Ecliptic and Mean Equinox of Reference Epoch                 
*******************************************************************************
JDTDB
   X     Y     Z
   VX    VY    VZ
   LT    RG    RR
*******************************************************************************
$$SOE
2458066.500000000 = A.D. 2017-Nov-09 00:00:00.0000 TDB 
 X =-4.491276714866829E+00 Y =-3.057787765611903E+00 Z = 1.131399394516900E-01
 VX= 4.158987538813533E-03 VY=-5.879733751907409E-03 VZ=-6.861421676149085E-05
 LT= 3.138739601540159E-02 RG= 5.434559153687624E+00 RR=-1.302679660237417E-04
2458067.500000000 = A.D. 2017-Nov-10 00:00:00.0000 TDB 
 X =-4.487113907109243E+00 Y =-3.063664337997248E+00 Z = 1.130712306634568E-01
 VX= 4.166871408046026E-03 VY=-5.873929203799717E-03 VZ=-6.881839456742529E-05
 LT= 3.138664268354050E-02 RG= 5.434428718319253E+00 RR=-1.305124486687197E-04
2458068.500000000 = A.D. 2017-Nov-11 00:00:00.0000 TDB 
 X =-4.482942527496583E+00 Y =-3.069534942256273E+00 Z = 1.130023320270591E-01
 VX= 4.175208609447392E-03 VY=-5.867008014398572E-03 VZ=-6.897965257476319E-05
 LT= 3.138588412569054E-02 RG= 5.434297378098958E+00 RR=-1.317610983632665E-04
2458069.500000000 = A.D. 2017-Nov-12 00:00:00.0000 TDB 
 X =-4.478763861854249E+00 Y =-3.075399561757862E+00 Z = 1.129332220214128E-01
 VX= 4.182904172823582E-03 VY=-5.862422475001268E-03 VZ=-6.923603773219217E-05
 LT= 3.138512640752588E-02 RG= 5.434166183265669E+00 RR=-1.311641126101917E-04
2458070.500000000 = A.D. 2017-Nov-13 00:00:00.0000 TDB 
 X =-4.474576602832981E+00 Y =-3.081258731265580E+00 Z = 1.128639004115387E-01
 VX= 4.190957292411782E-03 VY=-5.856026821261081E-03 VZ=-6.941983714150219E-05
 LT= 3.138436504813459E-02 RG= 5.434034357973531E+00 RR=-1.318837197074463E-04
2458071.500000000 = A.D. 2017-Nov-14 00:00:00.0000 TDB 
 X =-4.470381548685584E+00 Y =-3.087112496763445E+00 Z = 1.127943563838672E-01
 VX= 4.199677261454819E-03 VY=-5.851093903525392E-03 VZ=-6.964682598996778E-05
 LT= 3.138360400263588E-02 RG= 5.433902587030209E+00 RR=-1.323230198053797E-04
2458072.500000000 = A.D. 2017-Nov-15 00:00:00.0000 TDB 
 X =-4.466178015274923E+00 Y =-3.092960340065561E+00 Z = 1.127246150929367E-01
 VX= 4.207112167223719E-03 VY=-5.845244956275684E-03 VZ=-6.986334569547431E-05
 LT= 3.138283832634148E-02 RG= 5.433770014289468E+00 RR=-1.322242859348991E-04
2458073.500000000 = A.D. 2017-Nov-16 00:00:00.0000 TDB 
 X =-4.461966141160519E+00 Y =-3.098803231408588E+00 Z = 1.126546382843677E-01
 VX= 4.216762727260062E-03 VY=-5.839717824035529E-03 VZ=-7.005830916411099E-05
 LT= 3.138207187049034E-02 RG= 5.433637306572660E+00 RR=-1.337609419209840E-04
